[{"OBJECT_NAME":"CELESTIS-17 & SHERPA-FX1","OBJECT_ID":"2021-006CB","EPOCH":"2026-03-09T15:26:05.078112","MEAN_MOTION":15.30994801,"ECCENTRICITY":0.000663,"INCLINATION":97.2397,"RA_OF_ASC_NODE":112.1052,"ARG_OF_PERICENTER":178.1385,"MEAN_ANOMALY":181.9882,"EPHEMERIS_TYPE":0,"CLASSIFICATION_TYPE":"U","NORAD_CAT_ID":47486,"ELEMENT_SET_NO":999,"REV_AT_EPOCH":28406,"BSTAR":0.00024301,"MEAN_MOTION_DOT":7.207e-5,"MEAN_MOTION_DDOT":0},{"OBJECT_NAME":"STARLINK-35393","OBJECT_ID":"2025-221E","EPOCH":"2026-03-09T10:46:33.143808","MEAN_MOTION":15.30205542,"ECCENTRICITY":0.00013987,"INCLINATION":53.1596,"RA_OF_ASC_NODE":89.6657,"ARG_OF_PERICENTER":94.3604,"MEAN_ANOMALY":265.7557,"EPHEMERIS_TYPE":0,"CLASSIFICATION_TYPE":"U","NORAD_CAT_ID":65827,"ELEMENT_SET_NO":999,"REV_AT_EPOCH":2604,"BSTAR":0.0007632145,"MEAN_MOTION_DOT":0.00022317,"MEAN_MOTION_DDOT":0}]
