CELESTIS-17 & SHERPA-FX1
1 47486U 21006CB  26068.64311433  .00007207  00000+0  24301-3 0  9993
2 47486  97.2397 112.1052 0006630 178.1385 181.9882 15.30994801284065
STARLINK-35393          
1 65827U 25221E   26068.44899472  .00022317  00000+0  76321-3 0  9995
2 65827  53.1596  89.6657 0001398  94.3604 265.7557 15.30205542 26043
